EARTHCARE               
1 59908U 24101A   24237.87372223  .00025355  00000+0  35350-3 0  9999
2 59908  96.9868   4.0464 0003558 191.2135 168.9042 15.56890641 13661
